{
  "type": "FeatureCollection",
  "features": [
    {
      "type": "Feature",
      "properties": {
        "norad_id": 31825,
        "name": "FENGYUN 1C DEB",
        "group": "fengyun-1c-debris",
        "lat": -69.92684603711079,
        "lon": 135.0550658615953,
        "alt_km": 860.3466770261157,
        "timestamp": "2025-12-05T16:54:14.931415+00:00",
        "meta_object_name": "FENGYUN 1C DEB",
        "meta_object_id": "1999-025CHP",
        "meta_epoch": "2025-12-04T19:26:41.262720",
        "meta_mean_motion": 14.21602569,
        "meta_eccentricity": 0.01661392,
        "meta_inclination": 98.5899,
        "meta_ra_of_asc_node": 338.6183,
        "meta_arg_of_pericenter": 1.3581,
        "meta_mean_anomaly": 358.8016,
        "meta_ephemeris_type": 0,
        "meta_classification_type": "U",
        "meta_norad_cat_id": 31825,
        "meta_element_set_no": 999,
        "meta_rev_at_epoch": 95509,
        "meta_bstar": 0.0014524042,
        "meta_mean_motion_dot": 3.621e-05,
        "meta_mean_motion_ddot": 0,
        "tle_line1": "1 31825U 99025CHP 25338.81019980  .00003621  00000+0  14524-2 0  9990",
        "tle_line2": "2 31825  98.5899 338.6183 0166139   1.3581 358.8016 14.21602569955090"
      },
      "geometry": {
        "type": "Point",
        "coordinates": [
          135.0550658615953,
          -69.92684603711079
        ]
      }
    },
    {
      "type": "Feature",
      "properties": {
        "norad_id": 31826,
        "name": "FENGYUN 1C DEB",
        "group": "fengyun-1c-debris",
        "lat": 3.062566839222535,
        "lon": 151.48071120894517,
        "alt_km": 755.3828961083163,
        "timestamp": "2025-12-05T16:54:14.931425+00:00",
        "meta_object_name": "FENGYUN 1C DEB",
        "meta_object_id": "1999-025CHQ",
        "meta_epoch": "2025-12-01T11:16:10.269984",
        "meta_mean_motion": 14.19245438,
        "meta_eccentricity": 0.01235722,
        "meta_inclination": 98.6258,
        "meta_ra_of_asc_node": 326.8919,
        "meta_arg_of_pericenter": 222.0054,
        "meta_mean_anomaly": 291.027,
        "meta_ephemeris_type": 0,
        "meta_classification_type": "U",
        "meta_norad_cat_id": 31826,
        "meta_element_set_no": 999,
        "meta_rev_at_epoch": 95654,
        "meta_bstar": 0.00042487612,
        "meta_mean_motion_dot": 9.18e-06,
        "meta_mean_motion_ddot": 0,
        "tle_line1": "1 31826U 99025CHQ 25335.46956331  .00000918  00000+0  42488-3 0  9996",
        "tle_line2": "2 31826  98.6258 326.8919 0123572 222.0054 291.0270 14.19245438956544"
      },
      "geometry": {
        "type": "Point",
        "coordinates": [
          151.48071120894517,
          3.062566839222535
        ]
      }
    },
    {
      "type": "Feature",
      "properties": {
        "norad_id": 31829,
        "name": "FENGYUN 1C DEB",
        "group": "fengyun-1c-debris",
        "lat": 57.684860945401155,
        "lon": 135.6596785217287,
        "alt_km": 996.7048277501854,
        "timestamp": "2025-12-05T16:54:14.931434+00:00",
        "meta_object_name": "FENGYUN 1C DEB",
        "meta_object_id": "1999-025CHT",
        "meta_epoch": "2025-12-03T06:39:41.312736",
        "meta_mean_motion": 13.8866372,
        "meta_eccentricity": 0.0168978,
        "meta_inclination": 98.8353,
        "meta_ra_of_asc_node": 147.5933,
        "meta_arg_of_pericenter": 190.204,
        "meta_mean_anomaly": 344.9165,
        "meta_ephemeris_type": 0,
        "meta_classification_type": "U",
        "meta_norad_cat_id": 31829,
        "meta_element_set_no": 999,
        "meta_rev_at_epoch": 94016,
        "meta_bstar": 0.00067055,
        "meta_mean_motion_dot": 8.64e-06,
        "meta_mean_motion_ddot": 0,
        "tle_line1": "1 31829U 99025CHT 25337.27756149  .00000864  00000+0  67055-3 0  9992",
        "tle_line2": "2 31829  98.8353 147.5933 0168978 190.2040 344.9165 13.88663720940164"
      },
      "geometry": {
        "type": "Point",
        "coordinates": [
          135.6596785217287,
          57.684860945401155
        ]
      }
    },
    {
      "type": "Feature",
      "properties": {
        "norad_id": 31830,
        "name": "FENGYUN 1C DEB",
        "group": "fengyun-1c-debris",
        "lat": -20.448271957709927,
        "lon": -97.88316570692398,
        "alt_km": 1046.6215639729153,
        "timestamp": "2025-12-05T16:54:14.931443+00:00",
        "meta_object_name": "FENGYUN 1C DEB",
        "meta_object_id": "1999-025CHU",
        "meta_epoch": "2025-12-02T06:36:37.177056",
        "meta_mean_motion": 13.83353348,
        "meta_eccentricity": 0.0181639,
        "meta_inclination": 99.1637,
        "meta_ra_of_asc_node": 82.2262,
        "meta_arg_of_pericenter": 342.8195,
        "meta_mean_anomaly": 72.1801,
        "meta_ephemeris_type": 0,
        "meta_classification_type": "U",
        "meta_norad_cat_id": 31830,
        "meta_element_set_no": 999,
        "meta_rev_at_epoch": 92595,
        "meta_bstar": 0.0020067,
        "meta_mean_motion_dot": 2.461e-05,
        "meta_mean_motion_ddot": 0,
        "tle_line1": "1 31830U 99025CHU 25336.27543029  .00002461  00000+0  20067-2 0  9990",
        "tle_line2": "2 31830  99.1637  82.2262 0181639 342.8195  72.1801 13.83353348925954"
      },
      "geometry": {
        "type": "Point",
        "coordinates": [
          -97.88316570692398,
          -20.448271957709927
        ]
      }
    },
    {
      "type": "Feature",
      "properties": {
        "norad_id": 31834,
        "name": "FENGYUN 1C DEB",
        "group": "fengyun-1c-debris",
        "lat": -31.578298022190584,
        "lon": 15.271783685275082,
        "alt_km": 936.2569237743292,
        "timestamp": "2025-12-05T16:54:14.931452+00:00",
        "meta_object_name": "FENGYUN 1C DEB",
        "meta_object_id": "1999-025CHY",
        "meta_epoch": "2025-12-03T10:51:38.608416",
        "meta_mean_motion": 14.03141122,
        "meta_eccentricity": 0.01625764,
        "meta_inclination": 98.3695,
        "meta_ra_of_asc_node": 198.3911,
        "meta_arg_of_pericenter": 103.7388,
        "meta_mean_anomaly": 258.1935,
        "meta_ephemeris_type": 0,
        "meta_classification_type": "U",
        "meta_norad_cat_id": 31834,
        "meta_element_set_no": 999,
        "meta_rev_at_epoch": 63580,
        "meta_bstar": 0.00028609708,
        "meta_mean_motion_dot": 4.63e-06,
        "meta_mean_motion_ddot": 0,
        "tle_line1": "1 31834U 99025CHY 25337.45253019  .00000463  00000+0  28610-3 0  9995",
        "tle_line2": "2 31834  98.3695 198.3911 0162576 103.7388 258.1935 14.03141122635804"
      },
      "geometry": {
        "type": "Point",
        "coordinates": [
          15.271783685275082,
          -31.578298022190584
        ]
      }
    },
    {
      "type": "Feature",
      "properties": {
        "norad_id": 31837,
        "name": "FENGYUN 1C DEB",
        "group": "fengyun-1c-debris",
        "lat": -79.23416014209975,
        "lon": 103.67807876027071,
        "alt_km": 666.4960396384322,
        "timestamp": "2025-12-05T16:54:14.931461+00:00",
        "meta_object_name": "FENGYUN 1C DEB",
        "meta_object_id": "1999-025CJB",
        "meta_epoch": "2025-12-02T11:29:46.361184",
        "meta_mean_motion": 14.81941802,
        "meta_eccentricity": 0.00948496,
        "meta_inclination": 98.1019,
        "meta_ra_of_asc_node": 51.8949,
        "meta_arg_of_pericenter": 51.0437,
        "meta_mean_anomaly": 309.918,
        "meta_ephemeris_type": 0,
        "meta_classification_type": "U",
        "meta_norad_cat_id": 31837,
        "meta_element_set_no": 999,
        "meta_rev_at_epoch": 98207,
        "meta_bstar": 0.0012645817,
        "meta_mean_motion_dot": 0.00010787,
        "meta_mean_motion_ddot": 0,
        "tle_line1": "1 31837U 99025CJB 25336.47900881  .00010787  00000+0  12646-2 0  9996",
        "tle_line2": "2 31837  98.1019  51.8949 0094849  51.0437 309.9180 14.81941802982076"
      },
      "geometry": {
        "type": "Point",
        "coordinates": [
          103.67807876027071,
          -79.23416014209975
        ]
      }
    },
    {
      "type": "Feature",
      "properties": {
        "norad_id": 31838,
        "name": "FENGYUN 1C DEB",
        "group": "fengyun-1c-debris",
        "lat": -80.42233345146563,
        "lon": 145.044830452305,
        "alt_km": 853.4941266770211,
        "timestamp": "2025-12-05T16:54:14.931471+00:00",
        "meta_object_name": "FENGYUN 1C DEB",
        "meta_object_id": "1999-025CJC",
        "meta_epoch": "2025-11-30T23:01:09.079104",
        "meta_mean_motion": 14.21077351,
        "meta_eccentricity": 0.00389588,
        "meta_inclination": 98.7199,
        "meta_ra_of_asc_node": 25.8052,
        "meta_arg_of_pericenter": 128.7083,
        "meta_mean_anomaly": 354.7559,
        "meta_ephemeris_type": 0,
        "meta_classification_type": "U",
        "meta_norad_cat_id": 31838,
        "meta_element_set_no": 999,
        "meta_rev_at_epoch": 64409,
        "meta_bstar": 0.00075198552,
        "meta_mean_motion_dot": 1.602e-05,
        "meta_mean_motion_ddot": 0,
        "tle_line1": "1 31838U 99025CJC 25334.95913286  .00001602  00000+0  75199-3 0  9990",
        "tle_line2": "2 31838  98.7199  25.8052 0038958 128.7083 354.7559 14.21077351644094"
      },
      "geometry": {
        "type": "Point",
        "coordinates": [
          145.044830452305,
          -80.42233345146563
        ]
      }
    }
  ]
}